GALAXY 34 (G-34)        
1 54027U 22128B   26191.63630854  .00000068  00000+0  00000+0 0  9999
2 54027   0.0116  33.6569 0001458  82.9540 272.0146  1.00271762 14144
ANGOSAT 2               
1 54033U 22131A   26191.35734962  .00000146  00000+0  00000+0 0  9991
2 54033   0.0226 120.2099 0000268 106.8187 212.9001  1.00272137 13706
EUTELSAT HOTBIRD 13F    
1 54048U 22134A   26191.56943093  .00000097  00000+0  00000+0 0  9995
2 54048   0.0496 289.5492 0001925  64.6196 152.3208  1.00271181 13613
LDPE-2                  
1 54219U 22144A   26191.39836192  .00000059  00000+0  00000+0 0  9996
2 54219   5.6662  63.4550 0002397 109.8187 123.2170  1.00542206 12072
EUTELSAT HOTBIRD 13G    
1 54225U 22146A   26191.56943093  .00000097  00000+0  00000+0 0  9995
2 54225   0.0548 216.6622 0002113 328.1901 321.6279  1.00270777  7708
ZHONGXING-19            
1 54230U 22148A   26191.61605647 -.00000072  00000+0  00000+0 0  9993
2 54230   0.0245 284.4162 0002944 213.1532 175.9371  1.00270518 13618
GALAXY 31 (G-31)        
1 54243U 22153A   26191.63355928  .00000000  00000+0  00000+0 0  9999
2 54243   0.0206  47.1412 0000922  76.2843 272.2042  1.00269885  7364
GALAXY 32 (G-32)        
1 54244U 22153B   26191.26376478 -.00000163  00000+0  00000+0 0  9993
2 54244   0.0095  29.5174 0001507  17.2587 245.3708  1.00271315 13379
EUTELSAT 10B            
1 54259U 22157A   26190.57067573  .00000081  00000+0  00000+0 0  9997
2 54259   0.0611  95.8495 0001939  19.2550  27.8360  1.00268864 13251
GALAXY 35 (G-35)        
1 54741U 22170A   26191.62252681  .00000000  00000+0  00000+0 0  9992
2 54741   0.0172  35.5452 0001858  80.5584 303.4466  1.00269569 13120
GALAXY 36 (G-36)        
1 54742U 22170B   26191.54923749 -.00000175  00000+0  00000+0 0  9998
2 54742   0.0266 116.6909 0002406 342.5107 297.9972  1.00271449 13001
METEOSAT-12 (MTG-I1)    
1 54743U 22170C   26191.33308481  .00000002  00000+0  00000+0 0  9994
2 54743   0.7198  18.8197 0003827  83.1984 305.9022  1.00266807 13215
SHIJIAN-23 (SJ-23)      
1 55131U 23002A   26191.66440205 -.00000337  00000+0  00000+0 0  9990
2 55131   3.7747  78.0177 0003409 270.6720 311.3478  1.00078758 12742
APSTAR-6E               
1 55239U 23005A   26191.52213385 -.00000308  00000+0  00000+0 0  9992
2 55239   0.0521 237.6798 0001847 329.8122  42.9410  1.00270753 18928
USA 342                 
1 55263U 23008A   26188.50607425  .00000000  00000+0  00000+0 0  9996
2 55263   0.0041 358.8692 0000194   5.7709 126.9344  1.00266819 12725
LDPE-3A                 
1 55264U 23008B   26191.59697431 -.00000266  00000+0  00000+0 0  9991
2 55264   2.4058  81.3759 0001523  78.0867 140.3055  0.99151262 12043
ELEKTRO-L 4             
1 55506U 23016A   26190.74040274 -.00000046  00000+0  00000+0 0  9998
2 55506   0.1042 130.2668 0001225  46.2596 183.4752  1.00272245 12565
AMAZONAS NEXUS          
1 55508U 23017A   26190.67543002 -.00000270  00000+0  00000+0 0  9999
2 55508   0.0345  40.6573 0004614  43.4687  25.6403  1.00269698  7276
ZHONGXING-26            
1 55686U 23023A   26191.59165990 -.00000344  00000+0  00000+0 0  9993
2 55686   0.0652  70.9779 0003304  28.9313 166.6819  1.00272731 12463
LUCH-5X (OLYMP-K 2)     
1 55841U 23031A   26191.72173648  .00000042  00000+0  00000+0 0  9993
2 55841   0.0310  93.2143 0000888 154.0165   3.2099  1.00271731 12173
GAOFEN-13 02            
1 55912U 23036A   26191.53432116 -.00000209  00000+0  00000+0 0  9990
2 55912   1.0256   3.9509 0003725 337.7173 287.3191  1.00275382 12329
SES-18                  
1 55970U 23038A   26191.54646414 -.00000091  00000+0  00000+0 0  9994
2 55970   0.0502 265.9654 0000668 304.8391 171.2985  1.00271399 12334
SES-19                  
1 55971U 23038B   26191.63837517  .00000097  00000+0  00000+0 0  9996
2 55971   0.0243 306.5022 0001636 174.6407 262.3337  1.00272314 12325
INTELSAT 40E (IS-40E)   
1 56174U 23052A   26191.26376478 -.00000163  00000+0  00000+0 0  9996
2 56174   0.0168  71.7954 0002213  71.2130 149.1372  1.00271727 12057
VIASAT-3 F1             
1 56370U 23060A   26191.54923749  .00000000  00000+0  00000+0 0  9992
2 56370   0.0176  18.4820 0001074  90.7753 287.9682  1.00269226 11667
ARCTURUS                
1 56371U 23060B   26191.44286876 -.00000301  00000+0  00000+0 0  9990
2 56371   2.8328  79.6526 0000723 135.5106 326.1074  1.00596563 11690
GS-1                    
1 56372U 23060C   26190.80040500 -.00000213  00000+0  00000+0 0  9994
2 56372   2.7823  79.5663 0003495 281.3864 304.3032  1.00268262  7768
BEIDOU-3 G4             
1 56564U 23066A   26191.59460657 -.00000271  00000+0  00000+0 0  9993
2 56564   0.4643 337.4778 0004857 187.8283 117.2996  1.00274180 11623
ARABSAT-7B (BADR-8)     
1 56757U 23075A   26191.05739304  .00000156  00000+0  00000+0 0  9997
2 56757   0.0719  28.6471 0003476   2.0078 303.9941  1.00271042 11349
NVS-01 (IRNSS-1J)       
1 56759U 23076A   26191.52722282 -.00000324  00000+0  00000+0 0  9997
2 56759   2.1134 243.3058 0003463   7.4034 357.0540  1.00266943 11359
NUSANTARA TIGA (SATRIA) 
1 57045U 23086A   26191.28447437 -.00000224  00000+0  00000+0 0  9995
2 57045   0.0339   8.7255 0002767 336.1803 191.7243  1.00272962  9994
