OBJECT_NAME,OBJECT_ID,EPOCH,MEAN_MOTION,ECCENTRICITY,INCLINATION,RA_OF_ASC_NODE,ARG_OF_PERICENTER,MEAN_ANOMALY,EPHEMERIS_TYPE,CLASSIFICATION_TYPE,NORAD_CAT_ID,ELEMENT_SET_NO,REV_AT_EPOCH,BSTAR,MEAN_MOTION_DOT,MEAN_MOTION_DDOT
GALAXY 34 (G-34),2022-128B,2026-07-10T15:16:17.057856,1.00271762,.00014584,0.0116,33.6569,82.9540,272.0146,0,U,54027,999,1414,0,.68E-6,0
ANGOSAT 2,2022-131A,2026-07-10T08:34:35.007168,1.00272137,.00002686,0.0226,120.2099,106.8187,212.9001,0,U,54033,999,1370,0,.146E-5,0
EUTELSAT HOTBIRD 13F,2022-134A,2026-07-10T13:39:58.832352,1.00271181,.0001925,0.0496,289.5492,64.6196,152.3208,0,U,54048,999,1361,0,.97E-6,0
LDPE-2,2022-144A,2026-07-10T09:33:38.469888,1.00542206,.0002397,5.6662,63.4550,109.8187,123.2170,0,U,54219,999,1207,0,.59E-6,0
EUTELSAT HOTBIRD 13G,2022-146A,2026-07-10T13:39:58.832352,1.00270777,.00021138,0.0548,216.6622,328.1901,321.6279,0,U,54225,999,770,0,.97E-6,0
ZHONGXING-19,2022-148A,2026-07-10T14:47:07.279008,1.00270518,.00029442,0.0245,284.4162,213.1532,175.9371,0,U,54230,999,1361,0,-.72E-6,0
GALAXY 31 (G-31),2022-153A,2026-07-10T15:12:19.521792,1.00269885,.00009223,0.0206,47.1412,76.2843,272.2042,0,U,54243,999,736,0,0,0
GALAXY 32 (G-32),2022-153B,2026-07-10T06:19:49.276992,1.00271315,.00015071,0.0095,29.5174,17.2587,245.3708,0,U,54244,999,1337,0,-.163E-5,0
EUTELSAT 10B,2022-157A,2026-07-09T13:41:46.383072,1.00268864,.00019391,0.0611,95.8495,19.2550,27.8360,0,U,54259,999,1325,0,.81E-6,0
GALAXY 35 (G-35),2022-170A,2026-07-10T14:56:26.316384,1.00269569,.00018581,0.0172,35.5452,80.5584,303.4466,0,U,54741,999,1312,0,0,0
GALAXY 36 (G-36),2022-170B,2026-07-10T13:10:54.119136,1.00271449,.00024068,0.0266,116.6909,342.5107,297.9972,0,U,54742,999,1300,0,-.175E-5,0
METEOSAT-12 (MTG-I1),2022-170C,2026-07-10T07:59:38.527584,1.00266807,.00038271,0.7198,18.8197,83.1984,305.9022,0,U,54743,999,1321,0,.2E-7,0
SHIJIAN-23 (SJ-23),2023-002A,2026-07-10T15:56:44.337120,1.00078758,.0003409,3.7747,78.0177,270.6720,311.3478,0,U,55131,999,1274,0,-.337E-5,0
APSTAR-6E,2023-005A,2026-07-10T12:31:52.364640,1.00270753,.00018473,0.0521,237.6798,329.8122,42.9410,0,U,55239,999,1892,0,-.308E-5,0
USA 342,2023-008A,2026-07-07T12:08:44.815200,1.00266819,.0000194,0.0041,358.8692,5.7709,126.9344,0,U,55263,999,1272,0,0,0
LDPE-3A,2023-008B,2026-07-10T14:19:38.580384,0.99151262,.00015236,2.4058,81.3759,78.0867,140.3055,0,U,55264,999,1204,0,-.266E-5,0
ELEKTRO-L 4,2023-016A,2026-07-09T17:46:10.796736,1.00272245,.00012253,0.1042,130.2668,46.2596,183.4752,0,U,55506,999,1256,0,-.46E-6,0
AMAZONAS NEXUS,2023-017A,2026-07-09T16:12:37.153728,1.00269698,.00046145,0.0345,40.6573,43.4687,25.6403,0,U,55508,999,727,0,-.27E-5,0
ZHONGXING-26,2023-023A,2026-07-10T14:11:59.415360,1.00272731,.00033041,0.0652,70.9779,28.9313,166.6819,0,U,55686,999,1246,0,-.344E-5,0
LUCH-5X (OLYMP-K 2),2023-031A,2026-07-10T17:19:18.031872,1.00271731,.0000888,0.0310,93.2143,154.0165,3.2099,0,U,55841,999,1217,0,.42E-6,0
GAOFEN-13 02,2023-036A,2026-07-10T12:49:25.348224,1.00275382,.00037259,1.0256,3.9509,337.7173,287.3191,0,U,55912,999,1232,0,-.209E-5,0
SES-18,2023-038A,2026-07-10T13:06:54.501696,1.00271399,.00006683,0.0502,265.9654,304.8391,171.2985,0,U,55970,999,1233,0,-.91E-6,0
SES-19,2023-038B,2026-07-10T15:19:15.614688,1.00272314,.0001636,0.0243,306.5022,174.6407,262.3337,0,U,55971,999,1232,0,.97E-6,0
INTELSAT 40E (IS-40E),2023-052A,2026-07-10T06:19:49.276992,1.00271727,.00022131,0.0168,71.7954,71.2130,149.1372,0,U,56174,999,1205,0,-.163E-5,0
VIASAT-3 F1,2023-060A,2026-07-10T13:10:54.119136,1.00269226,.00010742,0.0176,18.4820,90.7753,287.9682,0,U,56370,999,1166,0,0,0
ARCTURUS,2023-060B,2026-07-10T10:37:43.860864,1.00596563,.0000723,2.8328,79.6526,135.5106,326.1074,0,U,56371,999,1169,0,-.301E-5,0
GS-1,2023-060C,2026-07-09T19:12:34.992000,1.00268262,.00034958,2.7823,79.5663,281.3864,304.3032,0,U,56372,999,776,0,-.213E-5,0
BEIDOU-3 G4,2023-066A,2026-07-10T14:16:14.007648,1.00274180,.00048576,0.4643,337.4778,187.8283,117.2996,0,U,56564,999,1162,0,-.271E-5,0
ARABSAT-7B (BADR-8),2023-075A,2026-07-10T01:22:38.758656,1.00271042,.00034764,0.0719,28.6471,2.0078,303.9941,0,U,56757,999,1134,0,.156E-5,0
NVS-01 (IRNSS-1J),2023-076A,2026-07-10T12:39:12.051648,1.00266943,.0003463,2.1134,243.3058,7.4034,357.0540,0,U,56759,999,1135,0,-.324E-5,0
NUSANTARA TIGA (SATRIA),2023-086A,2026-07-10T06:49:38.585568,1.00272962,.00027675,0.0339,8.7255,336.1803,191.7243,0,U,57045,999,999,0,-.224E-5,0
